ORBCOMM FM20 [+]        
1 25416U 98046D   24074.43640166  .00001260  00000+0  48794-3 0  9995
2 25416  44.9935 194.6821 0001297 204.6580 155.4205 14.34971484338178
ORBCOMM FM16 [-]        
1 25417U 98046E   24074.91926433  .00001958  00000+0  71772-3 0  9999
2 25417  44.9934 188.5796 0004513 169.4774 190.6168 14.35865269338171
ORBCOMM FM15 [-]        
1 25418U 98046F   24074.44773204  .00001649  00000+0  61528-3 0  9999
2 25418  44.9966 194.7354 0004121 168.7204 191.3737 14.35600825338110
ORBCOMM FM14 [-]        
1 25419U 98046G   24074.43049927  .00001868  00000+0  68855-3 0  9990
2 25419  44.9950 194.0042 0002830 168.4117 302.6495 14.35747618338060
ORBCOMM FM13 [+]        
1 25420U 98046H   24074.42723556  .00001550  00000+0  58735-3 0  9992
2 25420  44.9968 198.5828 0004752 146.1796 213.9355 14.35082579337137
ORBCOMM FM21 [-]        
1 25475U 98053A   24074.93286499  .00001026  00000+0  40594-3 0  9998
2 25475  45.0080 280.4452 0000948  96.2644 263.8311 14.35046195331222
ORBCOMM FM22 [-]        
1 25476U 98053B   24074.93028882  .00001222  00000+0  46966-3 0  9996
2 25476  45.0074 277.9635 0002537  84.6723 275.4414 14.35521581331214
ORBCOMM FM23 [-]        
1 25477U 98053C   24074.54485802  .00001213  00000+0  47040-3 0  9997
2 25477  45.0084 284.7182 0001893  77.8686 282.2373 14.35074996331623
